[
    {
        "name": "Sateliot P4 SAT1",
        "TLE1": "1 99025U 26180BU  24318.16080353  .00006041  00000-0  59249-3 0 89995",
        "TLE2": "2 99025  87.4000  67.5000 0001076 000.0000 016.8750 14.63212766 13175",
        "type": 1,
        "country": "Spain",
        "payload": "Sateliot-25",
        "launchDate": "2026-06-30",
        "stableDate": "2026-06-30",
        "owner": "STIOT",
        "manufacturer": "Alen Space",
        "bus": "Cubesat 6U",
        "launchMass": "7.407",
        "dryMass": "7.407",
        "length": "0.3",
        "diameter": "0.2",
        "span": "0.4",
        "shape": "Box + 2 pan",
        "altName": "Sateliot-25",
        "launchPad": "VSFBS SLC4E",
        "launchVehicle": "Falcon 9",
        "launchSite": "AFWTR"
    },
    {
        "name": "Sateliot P4 SAT2",
        "TLE1": "1 99026U 26180BU  24318.16080353  .00006041  00000-0  59249-3 0 89995",
        "TLE2": "2 99026  87.4000  67.5000 0001076 000.0000 061.8750 14.63212766 13175",
        "type": 1,
        "country": "Spain",
        "payload": "Sateliot-26",
        "launchDate": "2026-06-30",
        "stableDate": "2026-06-30",
        "owner": "STIOT",
        "manufacturer": "Alen Space",
        "bus": "Cubesat 6U",
        "launchMass": "7.407",
        "dryMass": "7.407",
        "length": "0.3",
        "diameter": "0.2",
        "span": "0.4",
        "shape": "Box + 2 pan",
        "altName": "Sateliot-26",
        "launchPad": "VSFBS SLC4E",
        "launchVehicle": "Falcon 9",
        "launchSite": "AFWTR"
    },
    {
        "name": "Sateliot P4 SAT3",
        "TLE1": "1 99027U 26180BU  24318.16080353  .00006041  00000-0  59249-3 0 89995",
        "TLE2": "2 99027  87.4000  67.5000 0001076 000.0000 106.8750 14.63212766 13175",
        "type": 1,
        "country": "Spain",
        "payload": "Sateliot-27",
        "launchDate": "2026-06-30",
        "stableDate": "2026-06-30",
        "owner": "STIOT",
        "manufacturer": "Alen Space",
        "bus": "Cubesat 6U",
        "launchMass": "7.407",
        "dryMass": "7.407",
        "length": "0.3",
        "diameter": "0.2",
        "span": "0.4",
        "shape": "Box + 2 pan",
        "altName": "Sateliot-27",
        "launchPad": "VSFBS SLC4E",
        "launchVehicle": "Falcon 9",
        "launchSite": "AFWTR"
    },
    {
        "name": "Sateliot P4 SAT4",
        "TLE1": "1 99028U 26180BU  24318.16080353  .00006041  00000-0  59249-3 0 89995",
        "TLE2": "2 99028  87.4000  67.5000 0001076 000.0000 151.8750 14.63212766 13175",
        "type": 1,
        "country": "Spain",
        "payload": "Sateliot-28",
        "launchDate": "2026-06-30",
        "stableDate": "2026-06-30",
        "owner": "STIOT",
        "manufacturer": "Alen Space",
        "bus": "Cubesat 6U",
        "launchMass": "7.407",
        "dryMass": "7.407",
        "length": "0.3",
        "diameter": "0.2",
        "span": "0.4",
        "shape": "Box + 2 pan",
        "altName": "Sateliot-28",
        "launchPad": "VSFBS SLC4E",
        "launchVehicle": "Falcon 9",
        "launchSite": "AFWTR"
    },
    {
        "name": "Sateliot P4 SAT5",
        "TLE1": "1 99029U 26180BU  24318.16080353  .00006041  00000-0  59249-3 0 89995",
        "TLE2": "2 99029  87.4000  67.5000 0001076 000.0000 196.8750 14.63212766 13175",
        "type": 1,
        "country": "Spain",
        "payload": "Sateliot-29",
        "launchDate": "2026-06-30",
        "stableDate": "2026-06-30",
        "owner": "STIOT",
        "manufacturer": "Alen Space",
        "bus": "Cubesat 6U",
        "launchMass": "7.407",
        "dryMass": "7.407",
        "length": "0.3",
        "diameter": "0.2",
        "span": "0.4",
        "shape": "Box + 2 pan",
        "altName": "Sateliot-29",
        "launchPad": "VSFBS SLC4E",
        "launchVehicle": "Falcon 9",
        "launchSite": "AFWTR"
    },
    {
        "name": "Sateliot P4 SAT6",
        "TLE1": "1 99030U 26180BU  24318.16080353  .00006041  00000-0  59249-3 0 89995",
        "TLE2": "2 99030  87.4000  67.5000 0001076 000.0000 241.8750 14.63212766 13175",
        "type": 1,
        "country": "Spain",
        "payload": "Sateliot-30",
        "launchDate": "2026-06-30",
        "stableDate": "2026-06-30",
        "owner": "STIOT",
        "manufacturer": "Alen Space",
        "bus": "Cubesat 6U",
        "launchMass": "7.407",
        "dryMass": "7.407",
        "length": "0.3",
        "diameter": "0.2",
        "span": "0.4",
        "shape": "Box + 2 pan",
        "altName": "Sateliot-30",
        "launchPad": "VSFBS SLC4E",
        "launchVehicle": "Falcon 9",
        "launchSite": "AFWTR"
    },
    {
        "name": "Sateliot P4 SAT7",
        "TLE1": "1 99031U 26180BU  24318.16080353  .00006041  00000-0  59249-3 0 89995",
        "TLE2": "2 99031  87.4000  67.5000 0001076 000.0000 286.8750 14.63212766 13175",
        "type": 1,
        "country": "Spain",
        "payload": "Sateliot-31",
        "launchDate": "2026-06-30",
        "stableDate": "2026-06-30",
        "owner": "STIOT",
        "manufacturer": "Alen Space",
        "bus": "Cubesat 6U",
        "launchMass": "7.407",
        "dryMass": "7.407",
        "length": "0.3",
        "diameter": "0.2",
        "span": "0.4",
        "shape": "Box + 2 pan",
        "altName": "Sateliot-31",
        "launchPad": "VSFBS SLC4E",
        "launchVehicle": "Falcon 9",
        "launchSite": "AFWTR"
    },
    {
        "name": "Sateliot P4 SAT8",
        "TLE1": "1 99032U 26180BU  24318.16080353  .00006041  00000-0  59249-3 0 89995",
        "TLE2": "2 99032  87.4000  67.5000 0001076 000.0000 331.8750 14.63212766 13175",
        "type": 1,
        "country": "Spain",
        "payload": "Sateliot-32",
        "launchDate": "2026-06-30",
        "stableDate": "2026-06-30",
        "owner": "STIOT",
        "manufacturer": "Alen Space",
        "bus": "Cubesat 6U",
        "launchMass": "7.407",
        "dryMass": "7.407",
        "length": "0.3",
        "diameter": "0.2",
        "span": "0.4",
        "shape": "Box + 2 pan",
        "altName": "Sateliot-32",
        "launchPad": "VSFBS SLC4E",
        "launchVehicle": "Falcon 9",
        "launchSite": "AFWTR"
    },
    {
        "name": "Sateliot P5 SAT1",
        "TLE1": "1 99033U 26180BU  24318.16080353  .00006041  00000-0  59249-3 0 89995",
        "TLE2": "2 99033  87.4000  90.0000 0001076 000.0000 022.5000 14.63212766 13175",
        "type": 1,
        "country": "Spain",
        "payload": "Sateliot-33",
        "launchDate": "2026-06-30",
        "stableDate": "2026-06-30",
        "owner": "STIOT",
        "manufacturer": "Alen Space",
        "bus": "Cubesat 6U",
        "launchMass": "7.407",
        "dryMass": "7.407",
        "length": "0.3",
        "diameter": "0.2",
        "span": "0.4",
        "shape": "Box + 2 pan",
        "altName": "Sateliot-33",
        "launchPad": "VSFBS SLC4E",
        "launchVehicle": "Falcon 9",
        "launchSite": "AFWTR"
    },
    {
        "name": "Sateliot P5 SAT2",
        "TLE1": "1 99034U 26180BU  24318.16080353  .00006041  00000-0  59249-3 0 89995",
        "TLE2": "2 99034  87.4000  90.0000 0001076 000.0000 067.5000 14.63212766 13175",
        "type": 1,
        "country": "Spain",
        "payload": "Sateliot-34",
        "launchDate": "2026-06-30",
        "stableDate": "2026-06-30",
        "owner": "STIOT",
        "manufacturer": "Alen Space",
        "bus": "Cubesat 6U",
        "launchMass": "7.407",
        "dryMass": "7.407",
        "length": "0.3",
        "diameter": "0.2",
        "span": "0.4",
        "shape": "Box + 2 pan",
        "altName": "Sateliot-34",
        "launchPad": "VSFBS SLC4E",
        "launchVehicle": "Falcon 9",
        "launchSite": "AFWTR"
    },
    {
        "name": "Sateliot P5 SAT3",
        "TLE1": "1 99035U 26180BU  24318.16080353  .00006041  00000-0  59249-3 0 89995",
        "TLE2": "2 99035  87.4000  90.0000 0001076 000.0000 112.5000 14.63212766 13175",
        "type": 1,
        "country": "Spain",
        "payload": "Sateliot-35",
        "launchDate": "2026-06-30",
        "stableDate": "2026-06-30",
        "owner": "STIOT",
        "manufacturer": "Alen Space",
        "bus": "Cubesat 6U",
        "launchMass": "7.407",
        "dryMass": "7.407",
        "length": "0.3",
        "diameter": "0.2",
        "span": "0.4",
        "shape": "Box + 2 pan",
        "altName": "Sateliot-35",
        "launchPad": "VSFBS SLC4E",
        "launchVehicle": "Falcon 9",
        "launchSite": "AFWTR"
    },
    {
        "name": "Sateliot P5 SAT4",
        "TLE1": "1 99036U 26180BU  24318.16080353  .00006041  00000-0  59249-3 0 89995",
        "TLE2": "2 99036  87.4000  90.0000 0001076 000.0000 157.5000 14.63212766 13175",
        "type": 1,
        "country": "Spain",
        "payload": "Sateliot-36",
        "launchDate": "2026-06-30",
        "stableDate": "2026-06-30",
        "owner": "STIOT",
        "manufacturer": "Alen Space",
        "bus": "Cubesat 6U",
        "launchMass": "7.407",
        "dryMass": "7.407",
        "length": "0.3",
        "diameter": "0.2",
        "span": "0.4",
        "shape": "Box + 2 pan",
        "altName": "Sateliot-36",
        "launchPad": "VSFBS SLC4E",
        "launchVehicle": "Falcon 9",
        "launchSite": "AFWTR"
    }
]